[
    {
        "Altitude(m)": 712686.8629484915,
        "Argument of Periapsis(deg)": 0.0,
        "Eccentricity": 0.0,
        "Inclination(deg)": 45.0,
        "Latitude(deg)": -32.479778154538636,
        "Longitude(deg)": 109.31435164994836,
        "Mean Anomaly(deg)": -130.90909999999997,
        "RAAN(deg)": 350.0,
        "Satellite Name": "Constellation 1 1554",
        "Satellite Number": 1554,
        "Semi-Major Axis(m)": 7083131.272910544,
        "Time(s)": 0
    },
    {
        "Altitude(m)": 712700.1119924656,
        "Argument of Periapsis(deg)": 5.994800624540561e-05,
        "Eccentricity": 0.0,
        "Inclination(deg)": 45.0,
        "Latitude(deg)": -32.51305545491182,
        "Longitude(deg)": 109.37025585872404,
        "Mean Anomaly(deg)": -130.8483988597501,
        "RAAN(deg)": 349.9999434108344,
        "Satellite Name": "Constellation 1 1554",
        "Satellite Number": 1554,
        "Semi-Major Axis(m)": 7083131.272910544,
        "Time(s)": 1
    },
    {
        "Altitude(m)": 712713.3534639359,
        "Argument of Periapsis(deg)": 0.00011989601249081122,
        "Eccentricity": 0.0,
        "Inclination(deg)": 45.0,
        "Latitude(deg)": -32.54630387072986,
        "Longitude(deg)": 109.42620413364985,
        "Mean Anomaly(deg)": -130.78769771950024,
        "RAAN(deg)": 349.9998868216689,
        "Satellite Name": "Constellation 1 1554",
        "Satellite Number": 1554,
        "Semi-Major Axis(m)": 7083131.272910544,
        "Time(s)": 2
    },
    {
        "Altitude(m)": 712726.5873158567,
        "Argument of Periapsis(deg)": 0.00017984401873621686,
        "Eccentricity": 0.0,
        "Inclination(deg)": 45.0,
        "Latitude(deg)": -32.57952334486476,
        "Longitude(deg)": 109.4821965255138,
        "Mean Anomaly(deg)": -130.72699657925025,
        "RAAN(deg)": 349.9998302325033,
        "Satellite Name": "Constellation 1 1554",
        "Satellite Number": 1554,
        "Semi-Major Axis(m)": 7083131.272910544,
        "Time(s)": 3
    },
    {
        "Altitude(m)": 712739.8135012026,
        "Argument of Periapsis(deg)": 0.00023979202498162244,
        "Eccentricity": 0.0,
        "Inclination(deg)": 45.0,
        "Latitude(deg)": -32.61271382011726,
        "Longitude(deg)": 109.53823308498652,
        "Mean Anomaly(deg)": -130.6662954390004,
        "RAAN(deg)": 349.9997736433377,
        "Satellite Name": "Constellation 1 1554",
        "Satellite Number": 1554,
        "Semi-Major Axis(m)": 7083131.272910544,
        "Time(s)": 4
    },
    {
        "Altitude(m)": 712753.0319729603,
        "Argument of Periapsis(deg)": 0.00029974003122702807,
        "Eccentricity": 0.0,
        "Inclination(deg)": 45.0,
        "Latitude(deg)": -32.64587523921725,
        "Longitude(deg)": 109.59431386262044,
        "Mean Anomaly(deg)": -130.60559429875045,
        "RAAN(deg)": 349.99971705417215,
        "Satellite Name": "Constellation 1 1554",
        "Satellite Number": 1554,
        "Semi-Major Axis(m)": 7083131.272910544,
        "Time(s)": 5
    },
    {
        "Altitude(m)": 712766.2426841435,
        "Argument of Periapsis(deg)": 0.00035968803747243373,
        "Eccentricity": 0.0,
        "Inclination(deg)": 45.0,
        "Latitude(deg)": -32.67900754482335,
        "Longitude(deg)": 109.65043890884833,
        "Mean Anomaly(deg)": -130.5448931585006,
        "RAAN(deg)": 349.99966046500657,
        "Satellite Name": "Constellation 1 1554",
        "Satellite Number": 1554,
        "Semi-Major Axis(m)": 7083131.272910544,
        "Time(s)": 6
    },
    {
        "Altitude(m)": 712779.4455877867,
        "Argument of Periapsis(deg)": 0.00041963604371783933,
        "Eccentricity": 0.0,
        "Inclination(deg)": 45.0,
        "Latitude(deg)": -32.71211067952334,
        "Longitude(deg)": 109.70660810588629,
        "Mean Anomaly(deg)": -130.48419201825064,
        "RAAN(deg)": 349.99960387584105,
        "Satellite Name": "Constellation 1 1554",
        "Satellite Number": 1554,
        "Semi-Major Axis(m)": 7083131.272910544,
        "Time(s)": 7
    },
    {
        "Altitude(m)": 712792.6406369404,
        "Argument of Periapsis(deg)": 0.0004795840499632449,
        "Eccentricity": 0.0,
        "Inclination(deg)": 45.0,
        "Latitude(deg)": -32.74518458583407,
        "Longitude(deg)": 109.76282184011934,
        "Mean Anomaly(deg)": -130.42349087800085,
        "RAAN(deg)": 349.99954728667547,
        "Satellite Name": "Constellation 1 1554",
        "Satellite Number": 1554,
        "Semi-Major Axis(m)": 7083131.272910544,
        "Time(s)": 8
    },
    {
        "Altitude(m)": 712805.8277846783,
        "Argument of Periapsis(deg)": 0.0005395320562086505,
        "Eccentricity": 0.0,
        "Inclination(deg)": 45.0,
        "Latitude(deg)": -32.778229206201544,
        "Longitude(deg)": 109.81907999352036,
        "Mean Anomaly(deg)": -130.36278973775092,
        "RAAN(deg)": 349.9994906975098,
        "Satellite Name": "Constellation 1 1554",
        "Satellite Number": 1554,
        "Semi-Major Axis(m)": 7083131.272910544,
        "Time(s)": 9
    },
    {
        "Altitude(m)": 712819.006984098,
        "Argument of Periapsis(deg)": 0.0005994800624540561,
        "Eccentricity": 0.0,
        "Inclination(deg)": 45.0,
        "Latitude(deg)": -32.81124448300091,
        "Longitude(deg)": 109.87538261603567,
        "Mean Anomaly(deg)": -130.30208859750093,
        "RAAN(deg)": 349.9994341083443,
        "Satellite Name": "Constellation 1 1554",
        "Satellite Number": 1554,
        "Semi-Major Axis(m)": 7083131.272910544,
        "Time(s)": 10
    },
    {
        "Altitude(m)": 712832.1781883186,
        "Argument of Periapsis(deg)": 0.0006594280686994618,
        "Eccentricity": 0.0,
        "Inclination(deg)": 45.0,
        "Latitude(deg)": -32.84423035853643,
        "Longitude(deg)": 109.93172975748725,
        "Mean Anomaly(deg)": -130.2413874572511,
        "RAAN(deg)": 349.9993775191787,
        "Satellite Name": "Constellation 1 1554",
        "Satellite Number": 1554,
        "Semi-Major Axis(m)": 7083131.272910544,
        "Time(s)": 11
    },
    {
        "Altitude(m)": 712845.3413504703,
        "Argument of Periapsis(deg)": 0.0007193760749448675,
        "Eccentricity": 0.0,
        "Inclination(deg)": 45.0,
        "Latitude(deg)": -32.8771867750419,
        "Longitude(deg)": 109.98812146757265,
        "Mean Anomaly(deg)": -130.18068631700126,
        "RAAN(deg)": 349.9993209300132,
        "Satellite Name": "Constellation 1 1554",
        "Satellite Number": 1554,
        "Semi-Major Axis(m)": 7083131.272910544,
        "Time(s)": 12
    },
    {
        "Altitude(m)": 712858.4964237228,
        "Argument of Periapsis(deg)": 0.000779324081190273,
        "Eccentricity": 0.0,
        "Inclination(deg)": 45.0,
        "Latitude(deg)": -32.91011367468046,
        "Longitude(deg)": 110.04455779586331,
        "Mean Anomaly(deg)": -130.1199851767513,
        "RAAN(deg)": 349.9992643408476,
        "Satellite Name": "Constellation 1 1554",
        "Satellite Number": 1554,
        "Semi-Major Axis(m)": 7083131.272910544,
        "Time(s)": 13
    },
    {
        "Altitude(m)": 712871.6433612568,
        "Argument of Periapsis(deg)": 0.0008392720874356787,
        "Eccentricity": 0.0,
        "Inclination(deg)": 45.0,
        "Latitude(deg)": -32.94301099954452,
        "Longitude(deg)": 110.10103879180322,
        "Mean Anomaly(deg)": -130.0592840365014,
        "RAAN(deg)": 349.999207751682,
        "Satellite Name": "Constellation 1 1554",
        "Satellite Number": 1554,
        "Semi-Major Axis(m)": 7083131.272910544,
        "Time(s)": 14
    },
    {
        "Altitude(m)": 712884.78211627,
        "Argument of Periapsis(deg)": 0.0008992200936810842,
        "Eccentricity": 0.0,
        "Inclination(deg)": 45.0,
        "Latitude(deg)": -32.97587869165603,
        "Longitude(deg)": 110.1575643366123,
        "Mean Anomaly(deg)": -129.99858289625155,
        "RAAN(deg)": 349.99915116251645,
        "Satellite Name": "Constellation 1 1554",
        "Satellite Number": 1554,
        "Semi-Major Axis(m)": 7083131.272910544,
        "Time(s)": 15
    },
    {
        "Altitude(m)": 712897.9126419942,
        "Argument of Periapsis(deg)": 0.0009591680999264898,
        "Eccentricity": 0.0,
        "Inclination(deg)": 45.0,
        "Latitude(deg)": -33.00871669296675,
        "Longitude(deg)": 110.21413481567181,
        "Mean Anomaly(deg)": -129.9378817560016,
        "RAAN(deg)": 349.9990945733509,
        "Satellite Name": "Constellation 1 1554",
        "Satellite Number": 1554,
        "Semi-Major Axis(m)": 7083131.272910544,
        "Time(s)": 16
    },
    {
        "Altitude(m)": 712911.0348916763,
        "Argument of Periapsis(deg)": 0.0010191161061718953,
        "Eccentricity": 0.0,
        "Inclination(deg)": 45.0,
        "Latitude(deg)": -33.04152494535779,
        "Longitude(deg)": 110.27075010994261,
        "Mean Anomaly(deg)": -129.87718061575166,
        "RAAN(deg)": 349.99903798418535,
        "Satellite Name": "Constellation 1 1554",
        "Satellite Number": 1554,
        "Semi-Major Axis(m)": 7083131.272910544,
        "Time(s)": 17
    },
    {
        "Altitude(m)": 712924.1488185904,
        "Argument of Periapsis(deg)": 0.001079064112417301,
        "Eccentricity": 0.0,
        "Inclination(deg)": 45.0,
        "Latitude(deg)": -33.074303390639976,
        "Longitude(deg)": 110.32741026835141,
        "Mean Anomaly(deg)": -129.8164794755018,
        "RAAN(deg)": 349.99898139501977,
        "Satellite Name": "Constellation 1 1554",
        "Satellite Number": 1554,
        "Semi-Major Axis(m)": 7083131.272910544,
        "Time(s)": 18
    }
]